{
  "type": "FeatureCollection",
  "features": [
    {
      "type": "Feature",
      "properties": {
        "norad_id": 54259,
        "name": "EUTELSAT 10B",
        "group": "eutelsat",
        "lat": 0.019370330487439844,
        "lon": -143.63022111990205,
        "alt_km": 35783.363510881216,
        "timestamp": "2025-12-02T08:59:32.391259+00:00",
        "meta_object_name": "EUTELSAT 10B",
        "meta_object_id": "2022-157A",
        "meta_epoch": "2025-12-02T03:33:34.521408",
        "meta_mean_motion": 1.00268876,
        "meta_eccentricity": 0.00011,
        "meta_inclination": 0.0575,
        "meta_ra_of_asc_node": 105.0313,
        "meta_arg_of_pericenter": 70.6333,
        "meta_mean_anomaly": 319.0136,
        "meta_ephemeris_type": 0,
        "meta_classification_type": "U",
        "meta_norad_cat_id": 54259,
        "meta_element_set_no": 999,
        "meta_rev_at_epoch": 1105,
        "meta_bstar": 0,
        "meta_mean_motion_dot": 8.9e-07,
        "meta_mean_motion_ddot": 0,
        "tle_line1": "1 54259U 22157A   25336.14831622  .00000089  00000+0  00000+0 0  9993",
        "tle_line2": "2 54259   0.0575 105.0313 0001100  70.6333 319.0136  1.00268876 11059"
      },
      "geometry": {
        "type": "Point",
        "coordinates": [
          -143.63022111990205,
          0.019370330487439844
        ]
      }
    },
    {
      "type": "Feature",
      "properties": {
        "norad_id": 59346,
        "name": "EUTELSAT 36D",
        "group": "eutelsat",
        "lat": -0.03987407406532471,
        "lon": -117.78408905097305,
        "alt_km": 35785.446804991654,
        "timestamp": "2025-12-02T08:59:32.391273+00:00",
        "meta_object_name": "EUTELSAT 36D",
        "meta_object_id": "2024-059A",
        "meta_epoch": "2025-12-02T01:11:38.763744",
        "meta_mean_motion": 1.00269503,
        "meta_eccentricity": 4.65e-05,
        "meta_inclination": 0.018,
        "meta_ra_of_asc_node": 329.7734,
        "meta_arg_of_pericenter": 323.4878,
        "meta_mean_anomaly": 191.6963,
        "meta_ephemeris_type": 0,
        "meta_classification_type": "U",
        "meta_norad_cat_id": 59346,
        "meta_element_set_no": 999,
        "meta_rev_at_epoch": 617,
        "meta_bstar": 0,
        "meta_mean_motion_dot": 1.77e-06,
        "meta_mean_motion_ddot": 0,
        "tle_line1": "1 59346U 24059A   25336.04975421  .00000177  00000+0  00000+0 0  9991",
        "tle_line2": "2 59346   0.0180 329.7734 0000465 323.4878 191.6963  1.00269503  6178"
      },
      "geometry": {
        "type": "Point",
        "coordinates": [
          -117.78408905097305,
          -0.03987407406532471
        ]
      }
    }
  ]
}